0 SIRIUS W (MARCOPOLO 1)
1 20193U 89067A   13283.30756384 -.00000070  00000-0  10000-3 0  2779
2 20193 011.9839 042.0649 0001826 294.0627 065.9221 00.99184615 71220
0 SIRIUS W (MARCOPOLO 1)
1 20193U 89067A   13285.32392978 -.00000035  00000-0  10000-3 0  2780
2 20193 011.9872 042.0416 0001822 295.5704 064.4161 00.99184278 71241
0 SIRIUS W (MARCOPOLO 1)
1 20193U 89067A   13287.34028747 -.00000002  00000-0  10000-3 0  2799
2 20193 011.9905 042.0179 0001937 302.1950 057.7830 00.99184057 71264
0 SIRIUS W (MARCOPOLO 1)
1 20193U 89067A   13292.38110206  .00000055  00000-0  10000-3 0  2800
2 20193 011.9990 041.9589 0002047 305.0513 054.8914 00.99184522 71315
0 SIRIUS W (MARCOPOLO 1)
1 20193U 89067A   13294.39744603  .00000060  00000-0  10000-3 0  2814
2 20193 012.0027 041.9354 0001863 308.4852 051.4574 00.99185050 71330
